GOES 1 (SMS-C) [-]      
1 08366U 75100A   22335.44589150 -.00000209  00000+0  00000+0 0  9997
2 08366   7.8742 293.6426 0002934 292.9212 278.9760  1.00245758172090
GOES 2 [-]              
1 10061U 77048A   22335.57970021 -.00000006  00000+0  00000+0 0  9995
2 10061   9.4744 305.3457 0011682  21.4057 209.5167  0.99394133 33414
GOES 3 [-]              
1 10953U 78062A   22335.40146188 -.00000117  00000+0  00000+0 0  9996
2 10953   9.8163 309.9556 0001387 189.1126 172.3420  0.99357948115685
GOES 4 [-]              
1 11964U 80074A   22335.47093233 -.00000025  00000+0  00000+0 0  9992
2 11964  10.7881 313.7815 0031390  77.1511 294.6892  0.99227019114605
GOES 5 [-]              
1 12472U 81049A   22335.45645628 -.00000292  00000+0  00000+0 0  9995
2 12472  11.6720 325.2624 0001590 238.7207 324.1154  1.00273027109870
GOES 6 [-]              
1 14050U 83041A   22335.45092153 -.00000264  00000+0  00000+0 0  9991
2 14050  12.2542 330.6018 0003298 170.0190  15.9692  1.00257385203041
GOES 7 [-]              
1 17561U 87022A   22335.17153524  .00000053  00000+0  00000+0 0  9998
2 17561  14.1005 347.1935 0003676  63.5053 103.5600  0.99902250114039
GOES 8 [-]              
1 23051U 94022A   22335.58453355 -.00000004  00000+0  00000+0 0  9994
2 23051  13.3194  23.0115 0003408  32.7858 124.6371  0.98903086111330
GOES 9 [-]              
1 23581U 95025A   22335.54606851 -.00000093  00000+0  00000+0 0  9991
2 23581  12.8143  23.3998 0005659 128.1086 217.6109  0.98798633 99978
GOES 10 [-]             
1 24786U 97019A   22335.44800794 -.00000262  00000+0  00000+0 0  9993
2 24786  11.6097  29.6420 0028060 204.6100 327.5075  0.99126000 93249
GOES 11 [-]             
1 26352U 00022A   22335.59296944 -.00000290  00000+0  00000+0 0  9995
2 26352   9.0377  57.9792 0002724 190.2871 182.6051  0.99045530 39660
GOES 12 [-]             
1 26871U 01031A   22335.58644104 -.00000219  00000+0  00000+0 0  9997
2 26871   9.8175  47.0767 0004133 302.1508  49.4002  0.99137043 77938
EWS-G1 (GOES 13) [+]    
1 29155U 06018A   22335.53787500  .00000040  00000+0  00000+0 0  9999
2 29155   1.0010  93.7571 0006678 145.0966  86.4796  1.00272567 30403
GOES 14 [B]             
1 35491U 09033A   22335.57906869 -.00000092  00000+0  00000+0 0  9992
2 35491   0.1948 262.1690 0018146 320.9154 311.6090  1.00271240 49130
GOES 15 [B]             
1 36411U 10008A   22335.54873466  .00000054  00000+0  00000+0 0  9999
2 36411   0.1524 282.5532 0003229 279.2730 298.1700  1.00279387 46691
GOES 16 [+]             
1 41866U 16071A   22335.51067954 -.00000246  00000+0  00000+0 0  9993
2 41866   0.0533 257.1209 0000669  25.6624 256.2272  1.00271122 22141
GOES 17 [+]             
1 43226U 18022A   22335.53693425  .00000100  00000+0  00000+0 0  9991
2 43226   0.0447 127.8842 0000429 117.9246 240.5385  1.00272161 17455
GOES 18 [+]             
1 51850U 22021A   22330.76393437  .00000108  00000+0  00000+0 0  9995
2 51850   0.0035  85.4697 0001672 150.7672 327.5409  1.00272247  2762
